EPOCH,NORAD_CAT_ID,MEAN_MOTION,ECCENTRICITY,INCLINATION,RA_OF_ASC_NODE,ARG_OF_PERICENTER,MEAN_ANOMALY,MEAN_MOTION_DOT,BSTAR,TLE_LINE1,TLE_LINE2
2022-03-03 22:00:00,50803,15.63212365,0.0002008,53.2174,282.1034,24.7331,30.9422,-0.00718639,-0.0084078,1 50803U 22001A   22062.91667824 -.00718639  00000-0 -84078-2 0  9991,2 50803  53.2174 282.1034 0002008  24.7331  30.9422 15.63212365  3692
2022-03-04 12:00:00,50803,15.62318049,0.0001678,53.2172,279.261,33.1018,66.2464,-0.00716055,-0.008676,1 50803U 22001A   22063.50001157 -.00716055  00000-0 -86760-2 0  9998,2 50803  53.2172 279.2610 0001678  33.1018  66.2464 15.62318049 10214
2022-03-04 14:00:01,50803,15.62190936,0.0001701,53.2174,278.8555,39.9201,168.4351,-0.00714759,-0.0087021,1 50803U 22001A   22063.58335648 -.00714759  00000-0 -87021-2 0  9991,2 50803  53.2174 278.8555 0001701  39.9201 168.4351 15.62190936  3714
2022-03-04 22:00:00,50803,15.61681613,0.0001773,53.2174,277.2368,35.8931,247.7834,-0.00717185,-0.0089098,1 50803U 22001A   22063.91667824 -.00717185  00000-0 -89098-2 0  9994,2 50803  53.2174 277.2368 0001773  35.8931 247.7834 15.61681613  3693
2022-03-05 06:00:00,50803,15.61171723,0.0001655,53.2175,275.6161,30.5163,327.9354,-0.00716857,-0.0090843,1 50803U 22001A   22064.25001157 -.00716857  00000-0 -90843-2 0  9998,2 50803  53.2175 275.6161 0001655  30.5163 327.9354 15.61171723  3745
2022-03-05 14:00:01,50803,15.60659784,0.0001652,53.2176,273.9966,34.5684,38.0463,-0.0071291,-0.0092109,1 50803U 22001A   22064.58334491 -.00712910  00000-0 -92109-2 0  9997,2 50803  53.2176 273.9966 0001652  34.5684  38.0463 15.60659784 10385
2022-03-05 22:00:01,50803,15.60150961,0.0001856,53.2176,272.3813,35.0672,111.1601,-0.00715034,-0.0094236,1 50803U 22001A   22064.91668981 -.00715034  00000-0 -94236-2 0  9991,2 50803  53.2176 272.3813 0001856  35.0672 111.1601 15.60150961  3739
2022-03-06 12:00:00,50803,15.59259131,0.000176,53.2173,269.5519,38.0345,145.3653,-0.00716229,-0.00977,1 50803U 22001A   22065.50001157 -.00716229  00000-0 -97700-2 0  9999,2 50803  53.2173 269.5519 0001760  38.0345 145.3653 15.59259131 10529
2022-03-06 14:00:01,50803,15.59131279,0.0001613,53.2176,269.1485,39.3571,252.0659,-0.00714279,-0.0097892,1 50803U 22001A   22065.58334491 -.00714279  00000-0 -97892-2 0  9992,2 50803  53.2176 269.1485 0001613  39.3571 252.0659 15.59131279  3685
2022-03-06 22:00:00,50803,15.58622423,0.0001607,53.2175,267.5372,35.9706,327.1618,-0.00717488,-0.01003,1 50803U 22001A   22065.91667824 -.00717488  00000-0 -10030-1 0  9991,2 50803  53.2175 267.5372 0001607  35.9706 327.1618 15.58622423  3703
2022-03-07 12:00:00,50803,15.577272,0.0001521,53.2173,264.714,37.3665,359.7876,-0.00712746,-0.010302,1 50803U 22001A   22066.50001157 -.00712746  00000-0 -10302-1 0  9992,2 50803  53.2173 264.7140 0001521  37.3665 359.7876 15.57727200 10688
2022-03-07 12:00:00,50803,15.577272,0.0001521,53.2173,264.714,37.3665,359.7876,-0.00712746,-0.010302,1 50803U 22001A   22066.50001157 -.00712746  00000-0 -10302-1 0  9992,2 50803  53.2173 264.7140 0001521  37.3665 359.7876 15.57727200  3747
2022-03-07 22:00:00,50803,15.56968696,0.0001797,53.2169,262.7023,35.528,179.1343,-0.00564783,-0.0082444,1 50803U 22001A   22066.91667824 -.00564783  00000-0 -82444-2 0  9999,2 50803  53.2169 262.7023 0001797  35.5280 179.1343 15.56968696  3667
2022-03-08 12:00:00,50803,15.56198167,0.0001829,53.2175,259.8871,35.4502,209.9417,-0.00713092,-0.010916,1 50803U 22001A   22067.50001157 -.00713092  00000-0 -10916-1 0  9999,2 50803  53.2175 259.8871 0001829  35.4502 209.9417 15.56198167 10833
2022-03-08 14:00:01,50803,15.55978775,0.0001683,53.2169,259.4839,42.3941,310.1587,-0.00602617,-0.0091721,1 50803U 22001A   22067.58334491 -.00602617  00000-0 -91721-2 0  9991,2 50803  53.2169 259.4839 0001683  42.3941 310.1587 15.55978775  3675
2022-03-08 22:00:00,50803,15.5556049,0.0001794,53.2176,257.8817,30.9469,29.5822,-0.00713642,-0.011188,1 50803U 22001A   22067.91667824 -.00713642  00000-0 -11188-1 0  9996,2 50803  53.2176 257.8817 0001794  30.9469  29.5822 15.55560490  3698
2022-03-09 14:00:01,50803,15.54539948,0.0001988,53.2176,254.6713,32.397,162.3628,-0.00711495,-0.01158,1 50803U 22001A   22068.58334491 -.00711495  00000-0 -11580-1 0  9991,2 50803  53.2176 254.6713 0001988  32.3970 162.3628 15.54539948 11003
2022-03-09 22:00:01,50803,15.54029335,0.0001792,53.2175,253.0706,37.8637,223.1557,-0.00710702,-0.011786,1 50803U 22001A   22068.91668981 -.00710702  00000-0 -11786-1 0  9990,2 50803  53.2175 253.0706 0001792  37.8637 223.1557 15.54029335  3697
2022-03-10 14:00:01,50803,15.52923019,0.000151,53.2166,249.8656,34.1785,357.3771,-0.00597129,-0.010164,1 50803U 22001A   22069.58334491 -.00597129  00000-0 -10164-1 0  9995,2 50803  53.2166 249.8656 0001510  34.1785 357.3771 15.52923019  3661
2022-03-10 20:00:01,50803,15.52630087,0.0001694,53.2175,248.67,34.9326,314.8994,-0.00716129,-0.012508,1 50803U 22001A   22069.83334491 -.00716129  00000-0 -12508-1 0  9990,2 50803  53.2175 248.6700 0001694  34.9326 314.8994 15.52630087 11204
2022-03-10 22:00:01,50803,15.52497511,0.0001826,53.2175,248.2706,31.181,64.7494,-0.00707827,-0.012409,1 50803U 22001A   22069.91668981 -.00707827  00000-0 -12409-1 0  9998,2 50803  53.2175 248.2706 0001826  31.1810  64.7494 15.52497511  3693
2022-03-11 14:00:01,50803,15.51480262,0.0001877,53.2177,245.0751,36.48,186.2617,-0.0071141,-0.012945,1 50803U 22001A   22070.58334491 -.00711410  00000-0 -12945-1 0  9997,2 50803  53.2177 245.0751 0001877  36.4800 186.2617 15.51480262  3672
2022-03-11 22:00:00,50803,15.50968648,0.0001788,53.2176,243.4815,35.874,249.3862,-0.00717623,-0.013129,1 50803U 22001A   22070.91667824 -.00717623  00000-0 -13129-1 0  9990,2 50803  53.2176 243.4815 0001788  35.8740 249.3862 15.50968648  3683
2022-03-12 04:00:00,50803,15.50590532,0.0001786,53.2175,242.2844,38.1699,203.5768,-0.0072537,-0.013463,1 50803U 22001A   22071.16667824 -.00725370  00000-0 -13463-1 0  9997,2 50803  53.2175 242.2844 0001786  38.1699 203.5768 15.50590532 11407
2022-03-12 14:00:01,50803,15.49952453,0.0002151,53.2177,240.2935,22.2588,26.2005,-0.00724262,-0.013749,1 50803U 22001A   22071.58334491 -.00724262  00000-0 -13749-1 0  9990,2 50803  53.2177 240.2935 0002151  22.2588  26.2005 15.49952453  3706
2022-03-12 22:00:00,50803,15.49371816,0.0001171,53.2173,238.7029,15.7385,93.4147,-0.00539753,-0.010361,1 50803U 22001A   22071.91667824 -.00539753  00000-0 -10361-1 0  9992,2 50803  53.2173 238.7029 0001171  15.7385  93.4147 15.49371816  3702
2022-03-13 06:00:00,50803,15.48946963,0.0001673,53.2173,237.1099,37.3789,131.8334,0.00001563,0.000036592,1 50803U 22001A   22072.25001157  .00001563  00000-0  36592-4 0  9999,2 50803  53.2173 237.1099 0001673  37.3789 131.8334 15.48946963 11576
2022-03-13 14:00:01,50803,15.48933913,0.0001648,53.2164,235.5175,38.7124,190.2951,0.00022171,0.00041091,1 50803U 22001A   22072.58334491  .00022171  00000-0  41091-3 0  9992,2 50803  53.2164 235.5175 0001648  38.7124 190.2951 15.48933913  3692
2022-03-13 20:00:01,50803,15.49025278,0.000173,53.2149,234.3174,38.9041,145.0437,0.00069754,0.0012636,1 50803U 22001A   22072.83334491  .00069754  00000-0  12636-2 0  9990,2 50803  53.2149 234.3174 0001730  38.9041 145.0437 15.49025278 11663
2022-03-13 22:00:01,50803,15.49038629,0.000173,53.2148,233.9196,36.8524,252.1325,0.00060398,0.001096,1 50803U 22001A   22072.91668981  .00060398  00000-0  10960-2 0  9996,2 50803  53.2148 233.9196 0001730  36.8524 252.1325 15.49038629  3698
2022-03-14 04:00:00,50803,15.4910799,0.0001638,53.215,232.7247,40.3133,203.5764,0.00025365,0.00046592,1 50803U 22001A   22073.16667824  .00025365  00000-0  46592-3 0  9995,2 50803  53.2150 232.7247 0001638  40.3133 203.5764 15.49107990 11715
2022-03-14 12:00:00,50803,15.49211793,0.0001653,53.2154,231.1331,41.674,262.2465,-0.00047561,-0.00085521,1 50803U 22001A   22073.50001157 -.00047561  00000-0 -85521-3 0  9993,2 50803  53.2154 231.1331 0001653  41.6740 262.2465 15.49211793 11763
2022-03-14 14:00:01,50803,15.49237431,0.0001755,53.2153,230.7358,38.1953,10.8058,-0.00129554,-0.002366,1 50803U 22001A   22073.58335648 -.00129554  00000-0 -23660-2 0  9994,2 50803  53.2153 230.7358 0001755  38.1953  10.8058 15.49237431  3679
2022-03-14 20:00:01,50803,15.49122873,0.0001858,53.2155,229.5438,36.8434,327.1218,-0.00142556,-0.0026191,1 50803U 22001A   22073.83334491 -.00142556  00000-0 -26191-2 0  9996,2 50803  53.2155 229.5438 0001858  36.8434 327.1218 15.49122873 11820
2022-03-14 20:00:01,50803,15.49122873,0.0001858,53.2155,229.5438,36.8434,327.1218,-0.00142556,-0.0026191,1 50803U 22001A   22073.83334491 -.00142556  00000-0 -26191-2 0  9996,2 50803  53.2155 229.5438 0001858  36.8434 327.1218 15.49122873  3652
2022-03-15 02:00:01,50803,15.49090848,0.000178,53.2154,228.3491,33.0193,285.9045,-0.00258245,-0.0048269,1 50803U 22001A   22074.08334491 -.00258245  00000-0 -48269-2 0  9997,2 50803  53.2154 228.3491 0001780  33.0193 285.9045 15.49090848 11858
2022-03-15 02:00:01,50803,15.49090848,0.000178,53.2154,228.3491,33.0193,285.9045,-0.00258245,-0.0048269,1 50803U 22001A   22074.08334491 -.00258245  00000-0 -48269-2 0  9997,2 50803  53.2154 228.3491 0001780  33.0193 285.9045 15.49090848  3668
2022-03-15 20:00:01,50803,15.48640466,0.0002098,53.2158,224.7715,37.4706,145.7715,0.00226226,0.0040529,1 50803U 22001A   22074.83334491  .00226226  00000-0  40529-2 0  9993,2 50803  53.2158 224.7715 0002098  37.4706 145.7715 15.48640466 11978
2022-03-15 22:00:00,50803,15.48677211,0.0002068,53.2154,224.3737,35.3147,252.7888,0.00219603,0.0039328,1 50803U 22001A   22074.91667824  .00219603  00000-0  39328-2 0  9997,2 50803  53.2154 224.3737 0002068  35.3147 252.7888 15.48677211  3673
2022-03-16 12:00:00,50803,15.48900397,0.0001816,53.2158,221.5892,35.0739,267.3209,0.00021721,0.00040323,1 50803U 22001A   22075.50001157  .00021721  00000-0  40323-3 0  9994,2 50803  53.2158 221.5892 0001816  35.0739 267.3209 15.48900397 12079
